$$SOE
2459580.500000000, A.D. 2022-Jan-01 00:00:00.0000, -4.717007107978555E+08, 2.835473658938192E+08, 3.634439618447788E+07,
2459587.500000000, A.D. 2022-Jan-08 00:00:00.0000, -4.774492455350323E+08, 2.758199136060573E+08, 3.615365750150742E+07,
2459594.500000000, A.D. 2022-Jan-15 00:00:00.0000, -4.830604687102720E+08, 2.680131063282555E+08, 3.595251746377727E+07,
2459601.500000000, A.D. 2022-Jan-22 00:00:00.0000, -4.885335293872541E+08, 2.601296148171237E+08, 3.574109068890664E+07,
2459608.500000000, A.D. 2022-Jan-29 00:00:00.0000, -4.938676323893476E+08, 2.521721088749210E+08, 3.551949413033850E+07,
2459615.500000000, A.D. 2022-Feb-05 00:00:00.0000, -4.990620397459488E+08, 2.441432554437263E+08, 3.528784712255262E+07,
2459622.500000000, A.D. 2022-Feb-12 00:00:00.0000, -5.041160699416697E+08, 2.360457156763313E+08, 3.504627114268531E+07,
2459629.500000000, A.D. 2022-Feb-19 00:00:00.0000, -5.090290962938957E+08, 2.278821433511965E+08, 3.479488960353333E+07,
2459636.500000000, A.D. 2022-Feb-26 00:00:00.0000, -5.138005457724655E+08, 2.196551839073574E+08, 3.453382773898768E+07,
2459643.500000000, A.D. 2022-Mar-05 00:00:00.0000, -5.184298981048130E+08, 2.113674734819587E+08, 3.426321251671170E+07,
2459650.500000000, A.D. 2022-Mar-12 00:00:00.0000, -5.229166849471846E+08, 2.030216378844563E+08, 3.398317255216564E+07,
2459657.500000000, A.D. 2022-Mar-19 00:00:00.0000, -5.272604890532118E+08, 1.946202915354481E+08, 3.369383801955255E+07,
2459664.500000000, A.D. 2022-Mar-26 00:00:00.0000, -5.314609434195878E+08, 1.861660363642392E+08, 3.339534055694998E+07,
2459671.500000000, A.D. 2022-Apr-02 00:00:00.0000, -5.355177303429160E+08, 1.776614606093425E+08, 3.308781315465521E+07,
2459678.500000000, A.D. 2022-Apr-09 00:00:00.0000, -5.394305801172601E+08, 1.691091375266678E+08, 3.277139000202288E+07,
2459685.500000000, A.D. 2022-Apr-16 00:00:00.0000, -5.431992690165989E+08, 1.605116246591680E+08, 3.244620631334309E+07,
2459692.500000000, A.D. 2022-Apr-23 00:00:00.0000, -5.468236178324641E+08, 1.518714647516059E+08, 3.211239833763909E+07,
2459699.500000000, A.D. 2022-Apr-30 00:00:00.0000, -5.503034928388920E+08, 1.431911860647106E+08, 3.177010354037082E+07,
2459706.500000000, A.D. 2022-May-07 00:00:00.0000, -5.536388061234946E+08, 1.344733001152104E+08, 3.141946051481737E+07,
2459713.500000000, A.D. 2022-May-14 00:00:00.0000, -5.568295138954384E+08, 1.257202998793959E+08, 3.106060874394766E+07,
2459720.500000000, A.D. 2022-May-21 00:00:00.0000, -5.598756148020962E+08, 1.169346592175530E+08, 3.069368846103790E+07,
2459727.500000000, A.D. 2022-May-28 00:00:00.0000, -5.627771487347925E+08, 1.081188325594925E+08, 3.031884057459773E+07,
2459734.500000000, A.D. 2022-Jun-04 00:00:00.0000, -5.655341958479285E+08, 9.927525453780498E+07, 2.993620660665262E+07,
2459741.500000000, A.D. 2022-Jun-11 00:00:00.0000, -5.681468756477748E+08, 9.040633957046135E+07, 2.954592863133439E+07,
2459748.500000000, A.D. 2022-Jun-18 00:00:00.0000, -5.706153461130608E+08, 8.151448140538980E+07, 2.914814921136898E+07,
2459755.500000000, A.D. 2022-Jun-25 00:00:00.0000, -5.729398028186982E+08, 7.260205259316890E+07, 2.874301132711618E+07,
2459762.500000000, A.D. 2022-Jul-02 00:00:00.0000, -5.751204779294242E+08, 6.367140382143794E+07, 2.833065828058909E+07,
2459769.500000000, A.D. 2022-Jul-09 00:00:00.0000, -5.771576386736704E+08, 5.472486328732902E+07, 2.791123355322269E+07,
2459776.500000000, A.D. 2022-Jul-16 00:00:00.0000, -5.790515853534411E+08, 4.576473718986447E+07, 2.748488071107304E+07,
2459783.500000000, A.D. 2022-Jul-23 00:00:00.0000, -5.808026510893450E+08, 3.679331141893917E+07, 2.705174356558907E+07,
2459790.500000000, A.D. 2022-Jul-30 00:00:00.0000, -5.824112032180929E+08, 2.781285108605817E+07, 2.661196630835482E+07,
2459797.500000000, A.D. 2022-Aug-06 00:00:00.0000, -5.838776427445296E+08, 1.882559854460728E+07, 2.616569334291491E+07,
2459804.500000000, A.D. 2022-Aug-13 00:00:00.0000, -5.852024026711448E+08, 9.833772653339641E+06, 2.571306911451531E+07,
2459811.500000000, A.D. 2022-Aug-20 00:00:00.0000, -5.863859467746670E+08, 8.395687783064302E+05, 2.525423804075581E+07,
2459818.500000000, A.D. 2022-Aug-27 00:00:00.0000, -5.874287687625605E+08, -8.154841194491686E+06, 2.478934447771245E+07,
2459825.500000000, A.D. 2022-Sep-03 00:00:00.0000, -5.883313915623838E+08, -1.714730894707276E+07, 2.431853268991788E+07,
2459832.500000000, A.D. 2022-Sep-10 00:00:00.0000, -5.890943666545213E+08, -2.613570989485253E+07, 2.384194681800033E+07,
2459839.500000000, A.D. 2022-Sep-17 00:00:00.0000, -5.897182734193120E+08, -3.511794343186710E+07, 2.335973084116587E+07,
2459846.500000000, A.D. 2022-Sep-24 00:00:00.0000, -5.902037184384643E+08, -4.409193330734963E+07, 2.287202852476512E+07,
2459853.500000000, A.D. 2022-Oct-01 00:00:00.0000, -5.905513345108727E+08, -5.305562815650076E+07, 2.237898332896195E+07,
2459860.500000000, A.D. 2022-Oct-08 00:00:00.0000, -5.907617789752719E+08, -6.200700166391760E+07, 2.188073828358641E+07,
2459867.500000000, A.D. 2022-Oct-15 00:00:00.0000, -5.908357322709781E+08, -7.094405116129041E+07, 2.137743601234630E+07,
2459874.500000000, A.D. 2022-Oct-22 00:00:00.0000, -5.907738989180948E+08, -7.986479634455790E+07, 2.086921896855558E+07,
2459881.500000000, A.D. 2022-Oct-29 00:00:00.0000, -5.905770084199641E+08, -8.876728070523201E+07, 2.035622944100431E+07,
2459888.500000000, A.D. 2022-Nov-05 00:00:00.0000, -5.902458139889070E+08, -9.764957293546709E+07, 1.983860936115306E+07,
2459895.500000000, A.D. 2022-Nov-12 00:00:00.0000, -5.897810910599765E+08, -1.065097670404930E+08, 1.931650019517304E+07,
2459902.500000000, A.D. 2022-Nov-19 00:00:00.0000, -5.891836363124584E+08, -1.153459821135792E+08, 1.879004290858915E+07,
2459909.500000000, A.D. 2022-Nov-26 00:00:00.0000, -5.884542669375892E+08, -1.241563621716256E+08, 1.825937794680855E+07,
2459916.500000000, A.D. 2022-Dec-03 00:00:00.0000, -5.875938199869105E+08, -1.329390760633520E+08, 1.772464521523552E+07,
2459923.500000000, A.D. 2022-Dec-10 00:00:00.0000, -5.866031517558030E+08, -1.416923174317865E+08, 1.718598405624813E+07,
2459930.500000000, A.D. 2022-Dec-17 00:00:00.0000, -5.854831371773347E+08, -1.504143047565106E+08, 1.664353321868324E+07,
2459937.500000000, A.D. 2022-Dec-24 00:00:00.0000, -5.842346691168286E+08, -1.591032815420452E+08, 1.609743080440176E+07,
2459944.500000000, A.D. 2022-Dec-31 00:00:00.0000, -5.828586572092860E+08, -1.677575165454254E+08, 1.554781416792325E+07,
2459951.500000000, A.D. 2023-Jan-07 00:00:00.0000, -5.813560261166199E+08, -1.763753030811230E+08, 1.499481983654115E+07,
2459958.500000000, A.D. 2023-Jan-14 00:00:00.0000, -5.797277151713170E+08, -1.849549569071964E+08, 1.443858367195576E+07,
2459965.500000000, A.D. 2023-Jan-21 00:00:00.0000, -5.779746800513396E+08, -1.934948158662459E+08, 1.387924107329860E+07,
2459972.500000000, A.D. 2023-Jan-28 00:00:00.0000, -5.760978928187631E+08, -2.019932414772760E+08, 1.331692686918324E+07,
2459979.500000000, A.D. 2023-Feb-04 00:00:00.0000, -5.740983405305318E+08, -2.104486194508304E+08, 1.275177516542903E+07,
2459986.500000000, A.D. 2023-Feb-11 00:00:00.0000, -5.719770242158883E+08, -2.188593593212876E+08, 1.218391929737532E+07,
2459993.500000000, A.D. 2023-Feb-18 00:00:00.0000, -5.697349582833378E+08, -2.272238940200930E+08, 1.161349182537130E+07,
2460000.500000000, A.D. 2023-Feb-25 00:00:00.0000, -5.673731700942683E+08, -2.355406795522327E+08, 1.104062453620231E+07,
2460007.500000000, A.D. 2023-Mar-04 00:00:00.0000, -5.648926996009597E+08, -2.438081947574318E+08, 1.046544844274406E+07,
2460014.500000000, A.D. 2023-Mar-11 00:00:00.0000, -5.622945990201535E+08, -2.520249411557198E+08, 9.888093779422298E+06,
2460021.500000000, A.D. 2023-Mar-18 00:00:00.0000, -5.595799324948117E+08, -2.601894429269387E+08, 9.308689985298127E+06,
2460028.500000000, A.D. 2023-Mar-25 00:00:00.0000, -5.567497755403875E+08, -2.683002470714778E+08, 8.727365652465656E+06,
2460035.500000000, A.D. 2023-Apr-01 00:00:00.0000, -5.538052138506646E+08, -2.763559233588663E+08, 8.144248433163077E+06,
2460042.500000000, A.D. 2023-Apr-08 00:00:00.0000, -5.507473420779616E+08, -2.843550628392587E+08, 7.559465062321067E+06,
2460049.500000000, A.D. 2023-Apr-15 00:00:00.0000, -5.475772649240944E+08, -2.922962760242435E+08, 6.973141619627327E+06,
2460056.500000000, A.D. 2023-Apr-22 00:00:00.0000, -5.442960987327876E+08, -3.001781937895524E+08, 6.385403615802988E+06,
2460063.500000000, A.D. 2023-Apr-29 00:00:00.0000, -5.409049708486754E+08, -3.079994687471151E+08, 5.796375836362734E+06,
2460070.500000000, A.D. 2023-May-06 00:00:00.0000, -5.374050185027720E+08, -3.157587753052647E+08, 5.206182249852315E+06,
2460077.500000000, A.D. 2023-May-13 00:00:00.0000, -5.337973882006410E+08, -3.234548093108006E+08, 4.614945997011200E+06,
2460084.500000000, A.D. 2023-May-20 00:00:00.0000, -5.300832353788573E+08, -3.310862877644123E+08, 4.022789399031579E+06,
2460091.500000000, A.D. 2023-May-27 00:00:00.0000, -5.262637241362816E+08, -3.386519486392309E+08, 3.429833964497939E+06,
2460098.500000000, A.D. 2023-Jun-03 00:00:00.0000, -5.223400269825617E+08, -3.461505507766078E+08, 2.836200391570598E+06,
2460105.500000000, A.D. 2023-Jun-10 00:00:00.0000, -5.183133245798460E+08, -3.535808738728021E+08, 2.242008561822668E+06,
2460112.500000000, A.D. 2023-Jun-17 00:00:00.0000, -5.141848053882156E+08, -3.609417186166335E+08, 1.647377512374356E+06,
2460119.500000000, A.D. 2023-Jun-24 00:00:00.0000, -5.099556648943185E+08, -3.682319069226212E+08, 1.052425361249462E+06,
2460126.500000000, A.D. 2023-Jul-01 00:00:00.0000, -5.056271041696208E+08, -3.754502814317998E+08, 4.572692301683426E+05,
2460133.500000000, A.D. 2023-Jul-08 00:00:00.0000, -5.012003294318935E+08, -3.825957034585201E+08, -1.379746147107184E+05,
2460140.500000000, A.D. 2023-Jul-15 00:00:00.0000, -4.966765538865511E+08, -3.896670522136154E+08, -7.331905184420943E+05,
2460147.500000000, A.D. 2023-Jul-22 00:00:00.0000, -4.920569983269088E+08, -3.966632263390017E+08, -1.328263497007102E+06,
$$EOE